{"type": "FeatureCollection", "features": [ {"type": "Feature", "properties": {"norad_id": 34979, "name": "COSMOS 2251 DEB", "group": "cosmos-2251-debris", "lat": 30.510899906063557, "lon": -100.22501235568345, "alt_km": 614.7023990180878, "timestamp": "2025-12-21T11:31:43.255172+00:00", "meta": {"OBJECT_NAME": "COSMOS 2251 DEB", "OBJECT_ID": "1993-036AFJ", "EPOCH": "2025-12-21T03:16:18.156864", "MEAN_MOTION": 14.79486522, "ECCENTRICITY": 0.0049189, "INCLINATION": 74.0394, "RA_OF_ASC_NODE": 250.7421, "ARG_OF_PERICENTER": 326.962, "MEAN_ANOMALY": 32.8485, "EPHEMERIS_TYPE": 0, "CLASSIFICATION_TYPE": "U", "NORAD_CAT_ID": 34979, "ELEMENT_SET_NO": 999, "REV_AT_EPOCH": 88344, "BSTAR": 0.00070797, "MEAN_MOTION_DOT": 5.369e-05, "MEAN_MOTION_DDOT": 0}, "tle": {"line1": "1 34979U 93036AFJ 25355.13632126  .00005369  00000+0  70797-3 0  9992", "line2": "2 34979  74.0394 250.7421 0049189 326.9620  32.8485 14.79486522883446"}}, "geometry": {"type": "Point", "coordinates": [-100.22501235568345, 30.510899906063557]}}, {"type": "Feature", "properties": {"norad_id": 34990, "name": "COSMOS 2251 DEB", "group": "cosmos-2251-debris", "lat": 48.36597634532441, "lon": -106.09044472787858, "alt_km": 750.8355028385467, "timestamp": "2025-12-21T11:31:43.255182+00:00", "meta": {"OBJECT_NAME": "COSMOS 2251 DEB", "OBJECT_ID": "1993-036AFN", "EPOCH": "2025-12-15T10:28:28.781472", "MEAN_MOTION": 14.42382837, "ECCENTRICITY": 0.00165597, "INCLINATION": 74.0457, "RA_OF_ASC_NODE": 246.3361, "ARG_OF_PERICENTER": 308.9911, "MEAN_ANOMALY": 50.977, "EPHEMERIS_TYPE": 0, "CLASSIFICATION_TYPE": "U", "NORAD_CAT_ID": 34990, "ELEMENT_SET_NO": 999, "REV_AT_EPOCH": 87385, "BSTAR": 0.00031884459, "MEAN_MOTION_DOT": 1.029e-05, "MEAN_MOTION_DDOT": 0}, "tle": {"line1": "1 34990U 93036AFN 25349.43644423  .00001029  00000+0  31884-3 0  9997", "line2": "2 34990  74.0457 246.3361 0016559 308.9911  50.9770 14.42382837873857"}}, "geometry": {"type": "Point", "coordinates": [-106.09044472787858, 48.36597634532441]}}, {"type": "Feature", "properties": {"norad_id": 34997, "name": "COSMOS 2251 DEB", "group": "cosmos-2251-debris", "lat": -38.73436115262659, "lon": -78.66671123890904, "alt_km": 702.0848878948455, "timestamp": "2025-12-21T11:31:43.255193+00:00", "meta": {"OBJECT_NAME": "COSMOS 2251 DEB", "OBJECT_ID": "1993-036AFV", "EPOCH": "2025-12-14T03:40:01.084512", "MEAN_MOTION": 14.45585468, "ECCENTRICITY": 0.00977103, "INCLINATION": 73.8806, "RA_OF_ASC_NODE": 308.5363, "ARG_OF_PERICENTER": 283.3348, "MEAN_ANOMALY": 75.6929, "EPHEMERIS_TYPE": 0, "CLASSIFICATION_TYPE": "U", "NORAD_CAT_ID": 34997, "ELEMENT_SET_NO": 999, "REV_AT_EPOCH": 70767, "BSTAR": 0.0019000145, "MEAN_MOTION_DOT": 7.095e-05, "MEAN_MOTION_DDOT": 0}, "tle": {"line1": "1 34997U 93036AFV 25348.15279033  .00007095  00000+0  19000-2 0  9997", "line2": "2 34997  73.8806 308.5363 0097710 283.3348  75.6929 14.45585468707674"}}, "geometry": {"type": "Point", "coordinates": [-78.66671123890904, -38.73436115262659]}}, {"type": "Feature", "properties": {"norad_id": 34998, "name": "COSMOS 2251 DEB", "group": "cosmos-2251-debris", "lat": -44.61714561989399, "lon": 127.12837092212855, "alt_km": 720.4743510314593, "timestamp": "2025-12-21T11:31:43.255204+00:00", "meta": {"OBJECT_NAME": "COSMOS 2251 DEB", "OBJECT_ID": "1993-036AFW", "EPOCH": "2025-12-21T04:17:55.078080", "MEAN_MOTION": 14.49312972, "ECCENTRICITY": 0.0021418, "INCLINATION": 74.01, "RA_OF_ASC_NODE": 144.1297, "ARG_OF_PERICENTER": 288.5131, "MEAN_ANOMALY": 253.3723, "EPHEMERIS_TYPE": 0, "CLASSIFICATION_TYPE": "U", "NORAD_CAT_ID": 34998, "ELEMENT_SET_NO": 999, "REV_AT_EPOCH": 87542, "BSTAR": 0.0003938, "MEAN_MOTION_DOT": 1.48e-05, "MEAN_MOTION_DDOT": 0}, "tle": {"line1": "1 34998U 93036AFW 25355.17910970  .00001480  00000+0  39380-3 0  9996", "line2": "2 34998  74.0100 144.1297 0021418 288.5131 253.3723 14.49312972875422"}}, "geometry": {"type": "Point", "coordinates": [127.12837092212855, -44.61714561989399]}}, {"type": "Feature", "properties": {"norad_id": 35012, "name": "COSMOS 2251 DEB", "group": "cosmos-2251-debris", "lat": 11.508139384139247, "lon": -87.92030504038726, "alt_km": 717.107821288434, "timestamp": "2025-12-21T11:31:43.255215+00:00", "meta": {"OBJECT_NAME": "COSMOS 2251 DEB", "OBJECT_ID": "1993-036AFZ", "EPOCH": "2025-12-21T00:46:53.304096", "MEAN_MOTION": 14.45558565, "ECCENTRICITY": 0.0081648, "INCLINATION": 74.0209, "RA_OF_ASC_NODE": 96.2596, "ARG_OF_PERICENTER": 234.7993, "MEAN_ANOMALY": 124.5502, "EPHEMERIS_TYPE": 0, "CLASSIFICATION_TYPE": "U", "NORAD_CAT_ID": 35012, "ELEMENT_SET_NO": 999, "REV_AT_EPOCH": 87681, "BSTAR": 0.00012761, "MEAN_MOTION_DOT": 4.4e-06, "MEAN_MOTION_DDOT": 0}, "tle": {"line1": "1 35012U 93036AFZ 25355.03256139  .00000440  00000+0  12761-3 0  9998", "line2": "2 35012  74.0209  96.2596 0081648 234.7993 124.5502 14.45558565876813"}}, "geometry": {"type": "Point", "coordinates": [-87.92030504038726, 11.508139384139247]}}, {"type": "Feature", "properties": {"norad_id": 35014, "name": "COSMOS 2251 DEB", "group": "cosmos-2251-debris", "lat": 47.821181346158376, "lon": -172.04890778165245, "alt_km": 638.1024414019603, "timestamp": "2025-12-21T11:31:43.255226+00:00", "meta": {"OBJECT_NAME": "COSMOS 2251 DEB", "OBJECT_ID": "1993-036AGB", "EPOCH": "2025-12-17T09:17:45.359520", "MEAN_MOTION": 14.75277506, "ECCENTRICITY": 0.00070196, "INCLINATION": 73.9998, "RA_OF_ASC_NODE": 34.4305, "ARG_OF_PERICENTER": 212.3979, "MEAN_ANOMALY": 147.6764, "EPHEMERIS_TYPE": 0, "CLASSIFICATION_TYPE": "U", "NORAD_CAT_ID": 35014, "ELEMENT_SET_NO": 999, "REV_AT_EPOCH": 71405, "BSTAR": 0.0010947042, "MEAN_MOTION_DOT": 7.39e-05, "MEAN_MOTION_DDOT": 0}, "tle": {"line1": "1 35014U 93036AGB 25351.38733055  .00007390  00000+0  10947-2 0  9995", "line2": "2 35014  73.9998  34.4305 0007019 212.3979 147.6764 14.75277506714055"}}, "geometry": {"type": "Point", "coordinates": [-172.04890778165245, 47.821181346158376]}}, {"type": "Feature", "properties": {"norad_id": 35015, "name": "COSMOS 2251 DEB", "group": "cosmos-2251-debris", "lat": -13.46671427421725, "lon": -145.64372155919204, "alt_km": 747.7684026176348, "timestamp": "2025-12-21T11:31:43.255237+00:00", "meta": {"OBJECT_NAME": "COSMOS 2251 DEB", "OBJECT_ID": "1993-036AGC", "EPOCH": "2025-12-15T22:56:26.813760", "MEAN_MOTION": 14.46895598, "ECCENTRICITY": 0.0074243, "INCLINATION": 73.9481, "RA_OF_ASC_NODE": 228.6843, "ARG_OF_PERICENTER": 96.6585, "MEAN_ANOMALY": 285.5342, "EPHEMERIS_TYPE": 0, "CLASSIFICATION_TYPE": "U", "NORAD_CAT_ID": 35015, "ELEMENT_SET_NO": 999, "REV_AT_EPOCH": 65487, "BSTAR": 0.00054698056, "MEAN_MOTION_DOT": 2.026e-05, "MEAN_MOTION_DDOT": 0}, "tle": {"line1": "1 35015U 93036AGC 25349.95586590  .00002026  00000+0  54698-3 0  9999", "line2": "2 35015  73.9481 228.6843 0074243  96.6585 285.5342 14.46895598654878"}}, "geometry": {"type": "Point", "coordinates": [-145.64372155919204, -13.46671427421725]}}, {"type": "Feature", "properties": {"norad_id": 35016, "name": "COSMOS 2251 DEB", "group": "cosmos-2251-debris", "lat": -2.657475266797784, "lon": -82.47354239071164, "alt_km": 856.1176950832232, "timestamp": "2025-12-21T11:31:43.255247+00:00", "meta": {"OBJECT_NAME": "COSMOS 2251 DEB", "OBJECT_ID": "1993-036AGD", "EPOCH": "2025-12-21T01:36:06.995232", "MEAN_MOTION": 14.35074677, "ECCENTRICITY": 0.0114084, "INCLINATION": 73.9302, "RA_OF_ASC_NODE": 279.056, "ARG_OF_PERICENTER": 194.2679, "MEAN_ANOMALY": 186.7266, "EPHEMERIS_TYPE": 0, "CLASSIFICATION_TYPE": "U", "NORAD_CAT_ID": 35016, "ELEMENT_SET_NO": 999, "REV_AT_EPOCH": 86902, "BSTAR": 0.00020302, "MEAN_MOTION_DOT": 5.95e-06, "MEAN_MOTION_DDOT": 0}, "tle": {"line1": "1 35016U 93036AGD 25355.06674763  .00000595  00000+0  20302-3 0  9993", "line2": "2 35016  73.9302 279.0560 0114084 194.2679 186.7266 14.35074677869021"}}, "geometry": {"type": "Point", "coordinates": [-82.47354239071164, -2.657475266797784]}}, {"type": "Feature", "properties": {"norad_id": 35018, "name": "COSMOS 2251 DEB", "group": "cosmos-2251-debris", "lat": 52.69311628641173, "lon": -106.56673884663488, "alt_km": 1131.3059370737856, "timestamp": "2025-12-21T11:31:43.255258+00:00", "meta": {"OBJECT_NAME": "COSMOS 2251 DEB", "OBJECT_ID": "1993-036AGF", "EPOCH": "2025-12-17T17:22:46.408800", "MEAN_MOTION": 13.67124195, "ECCENTRICITY": 0.03487062, "INCLINATION": 73.976, "RA_OF_ASC_NODE": 101.7737, "ARG_OF_PERICENTER": 9.849, "MEAN_ANOMALY": 350.9229, "EPHEMERIS_TYPE": 0, "CLASSIFICATION_TYPE": "U", "NORAD_CAT_ID": 35018, "ELEMENT_SET_NO": 999, "REV_AT_EPOCH": 83254, "BSTAR": 0.00069190439, "MEAN_MOTION_DOT": 8.6e-06, "MEAN_MOTION_DDOT": 0}, "tle": {"line1": "1 35018U 93036AGF 25351.72414825  .00000860  00000+0  69190-3 0  9998", "line2": "2 35018  73.9760 101.7737 0348706   9.8490 350.9229 13.67124195832546"}}, "geometry": {"type": "Point", "coordinates": [-106.56673884663488, 52.69311628641173]}}, {"type": "Feature", "properties": {"norad_id": 35020, "name": "COSMOS 2251 DEB", "group": "cosmos-2251-debris", "lat": -59.62979060298849, "lon": 31.4262429126606, "alt_km": 649.5698011699151, "timestamp": "2025-12-21T11:31:43.255283+00:00", "meta": {"OBJECT_NAME": "COSMOS 2251 DEB", "OBJECT_ID": "1993-036AGH", "EPOCH": "2025-12-16T23:43:20.938656", "MEAN_MOTION": 14.62811627, "ECCENTRICITY": 0.00912676, "INCLINATION": 74.046, "RA_OF_ASC_NODE": 190.8083, "ARG_OF_PERICENTER": 304.0673, "MEAN_ANOMALY": 55.1854, "EPHEMERIS_TYPE": 0, "CLASSIFICATION_TYPE": "U", "NORAD_CAT_ID": 35020, "ELEMENT_SET_NO": 999, "REV_AT_EPOCH": 88300, "BSTAR": 0.00011860336, "MEAN_MOTION_DOT": 6.08e-06, "MEAN_MOTION_DDOT": 0}, "tle": {"line1": "1 35020U 93036AGH 25350.98843679  .00000608  00000+0  11860-3 0  9992", "line2": "2 35020  74.0460 190.8083 0091267 304.0673  55.1854 14.62811627883005"}}, "geometry": {"type": "Point", "coordinates": [31.4262429126606, -59.62979060298849]}}]}